     2.10           NAVIGATION DATA                         RINEX VERSION / TYPE
Spider V7.2.0.7790                      2021 09 23 00:39    PGM / RUN BY / DATE 
    7.4506D-09  1.4901D-08 -5.9605D-08 -1.1921D-07          ION ALPHA           
    7.9872D+04  1.6384D+04 -1.3107D+05 -1.3107D+05          ION BETA            
    9.313225746155D-10 3.552713678801D-15   405504     2175 DELTA-UTC: A0,A1,T,W
    18                                                      LEAP SECONDS        
                                                            END OF HEADER       
22 21 09 13 09 59 44.0-5.143624730408D-04 9.322320693173D-12 0.000000000000D+00
    3.700000000000D+01-4.750000000000D+01 5.082354537222D-09 1.828763920089D+00
   -2.462416887283D-06 6.753055960871D-03 8.115544915199D-06 5.153735935211D+03
    1.223840000000D+05 1.452863216400D-07 1.777325379753D+00 3.725290298462D-08
    9.360981019119D-01 2.067500000000D+02-8.978938807013D-01-8.161411102492D-09
    1.521491960199D-10 1.000000000000D+00 2.175000000000D+03 0.000000000000D+00
    2.000000000000D+00 0.000000000000D+00-1.769512891769D-08 3.700000000000D+01
    1.151100000000D+05 0.000000000000D+00
17 21 09 13 10 00  0.0 5.040010437369D-04 5.570655048359D-12 0.000000000000D+00
    9.100000000000D+01-2.281250000000D+00 4.186246016502D-09 2.971745169892D+00
   -4.842877388000D-08 1.352808543015D-02 3.559514880180D-06 5.153666881561D+03
    1.224000000000D+05 3.185123205185D-07-1.529384372426D-01-8.568167686462D-08
    9.815193763818D-01 3.182812500000D+02-1.557067845646D+00-7.933544488026D-09
   -8.000333034941D-11 1.000000000000D+00 2.175000000000D+03 0.000000000000D+00
    4.000000000000D+00 0.000000000000D+00-1.117587089539D-08 9.100000000000D+01
    1.151400000000D+05 0.000000000000D+00
 3 21 09 13 10 00  0.0-2.877982333302D-04-1.330136001343D-11 0.000000000000D+00
    7.800000000000D+01-3.659375000000D+01 4.343037929289D-09-4.211139905509D-01
   -1.946464180946D-06 3.858795855194D-03 8.534640073776D-06 5.153773387909D+03
    1.224000000000D+05 3.166496753693D-08 1.880656618954D+00 3.539025783539D-08
    9.703961109502D-01 2.191562500000D+02 9.774914157782D-01-7.934616519378D-09
    2.121516989861D-10 1.000000000000D+00 2.175000000000D+03 0.000000000000D+00
    2.800000000000D+00 0.000000000000D+00 1.862645149231D-09 7.800000000000D+01
    1.151400000000D+05 0.000000000000D+00
10 21 09 13 12 00  0.0-2.024048008025D-04-7.844391802792D-12 0.000000000000D+00
    8.000000000000D+00-4.581250000000D+01 4.414112630968D-09-2.154326503432D-01
   -2.508983016014D-06 6.929754861630D-03 8.948147296906D-06 5.153675106049D+03
    1.296000000000D+05-1.303851604462D-08 1.877759906569D+00 1.154839992523D-07
    9.702525621137D-01 2.106875000000D+02-2.584469169400D+00-8.016048269610D-09
    2.164375900726D-10 1.000000000000D+00 2.175000000000D+03 0.000000000000D+00
    2.000000000000D+00 0.000000000000D+00 2.328306436539D-09 8.000000000000D+00
    1.223400000000D+05 0.000000000000D+00
 3 21 09 13 12 00  0.0-2.878936938941D-04-1.330136001343D-11 0.000000000000D+00
    9.800000000000D+01-4.425000000000D+01 4.382325613506D-09 6.289191279318D-01
   -2.261251211166D-06 3.858046024106D-03 8.678063750267D-06 5.153772043228D+03
    1.296000000000D+05 3.166496753693D-08 1.880599483226D+00 6.705522537231D-08
    9.703976411626D-01 2.169375000000D+02 9.775781053777D-01-7.931044265774D-09
    2.221521161472D-10 1.000000000000D+00 2.175000000000D+03 0.000000000000D+00
    4.000000000000D+00 0.000000000000D+00 1.862645149231D-09 9.800000000000D+01
    1.223400000000D+05 0.000000000000D+00
22 21 09 13 12 00  0.0-5.142954178154D-04 9.322320693173D-12 0.000000000000D+00
    4.500000000000D+01-5.171875000000D+01 5.036281169879D-09 2.881120259275D+00
   -2.617016434669D-06 6.751562352292D-03 8.817762136459D-06 5.153739021301D+03
    1.296000000000D+05 8.381903171539D-08 1.777265969187D+00 2.030283212662D-07
    9.360994668145D-01 1.937500000000D+02-8.977697828236D-01-8.144982466263D-09
    2.650110408897D-10 1.000000000000D+00 2.175000000000D+03 0.000000000000D+00
    2.000000000000D+00 0.000000000000D+00-1.769512891769D-08 4.500000000000D+01
    1.223400000000D+05 0.000000000000D+00
24 21 09 13 12 00  0.0 2.335673198104D-04 8.640199666843D-12 0.000000000000D+00
    8.500000000000D+01 2.262500000000D+01 4.966635547277D-09 2.111998785753D+00
    1.056119799614D-06 1.153978169896D-02 9.261071681976D-06 5.153715410233D+03
    1.296000000000D+05-1.750886440277D-07-2.381562749259D+00-1.322478055954D-07
    9.348788679488D-01 1.878125000000D+02 7.554325116421D-01-8.162840181569D-09
   -2.710827118335D-10 1.000000000000D+00 2.175000000000D+03 0.000000000000D+00
    2.000000000000D+00 0.000000000000D+00 2.793967723846D-09 8.500000000000D+01
    1.223400000000D+05 0.000000000000D+00
 8 21 09 13 12 00  0.0-3.631878644228D-05-1.477928890381D-12 0.000000000000D+00
    8.400000000000D+01 2.421875000000D+01 4.593405655839D-09-2.214033883924D+00
    1.089647412300D-06 6.487352191471D-03 3.332272171974D-06 5.153652959824D+03
    1.296000000000D+05-8.940696716309D-08-2.325414538735D-01-1.341104507446D-07
    9.665678957183D-01 3.220000000000D+02 5.701605302747D-02-8.329632983362D-09
    1.167905772093D-10 1.000000000000D+00 2.175000000000D+03 0.000000000000D+00
    2.000000000000D+00 0.000000000000D+00 5.122274160385D-09 8.400000000000D+01
    1.223400000000D+05 0.000000000000D+00
17 21 09 13 12 00  0.0 5.040415562689D-04 5.570655048359D-12 0.000000000000D+00
    1.030000000000D+02 1.034375000000D+01 4.178031254298D-09-2.261326341799D+00
    7.357448339462D-07 1.352980942465D-02 3.108754754066D-06 5.153663272858D+03
    1.296000000000D+05 1.639127731323D-07-1.529963541694D-01 1.434236764908D-07
    9.815198401268D-01 3.258437500000D+02-1.556997666540D+00-7.881399533005D-09
    1.150047904130D-10 1.000000000000D+00 2.175000000000D+03 0.000000000000D+00
    4.000000000000D+00 0.000000000000D+00-1.117587089539D-08 1.030000000000D+02
    1.223400000000D+05 0.000000000000D+00
 1 21 09 13 12 00  0.0 5.689244717360D-04-1.102762325900D-11 0.000000000000D+00
    4.400000000000D+01-9.390625000000D+01 3.993380737199D-09 1.741991579364D+00
   -4.909932613373D-06 1.106483710464D-02 6.793066859245D-06 5.153681800842D+03
    1.296000000000D+05-2.514570951462D-07 8.437499352401D-01-6.891787052155D-08
    9.854223964668D-01 2.646250000000D+02 8.895852126005D-01-7.909258137317D-09
   -1.357199422292D-11 1.000000000000D+00 2.175000000000D+03 0.000000000000D+00
    2.000000000000D+00 0.000000000000D+00 5.122274160385D-09 4.400000000000D+01
    1.223400000000D+05 0.000000000000D+00
21 21 09 13 12 00  0.0 1.424890942872D-04 1.932676241267D-12 0.000000000000D+00
    7.900000000000D+01-8.318750000000D+01 4.487329618996D-09-2.169506687930D+00
   -3.760680556297D-06 2.406514564063D-02 5.938112735748D-06 5.153647197723D+03
    1.296000000000D+05 4.842877388000D-08 7.570761191221D-01 5.159527063370D-07
    9.581906182225D-01 2.605312500000D+02-1.085659271346D+00-7.896399978335D-09
   -1.214336270428D-11 1.000000000000D+00 2.175000000000D+03 0.000000000000D+00
    2.000000000000D+00 0.000000000000D+00-1.024454832077D-08 7.900000000000D+01
    1.223400000000D+05 0.000000000000D+00
32 21 09 13 12 00  0.0-1.257285475731D-07-3.410605131648D-12 0.000000000000D+00
    3.800000000000D+01-1.231250000000D+01 4.759126870368D-09-1.577235964906D+00
   -6.500631570816D-07 5.084342323244D-03 7.638707756996D-06 5.153708446503D+03
    1.296000000000D+05 1.452863216400D-07 2.920342950886D+00-1.061707735062D-07
    9.579031094694D-01 2.345937500000D+02-2.375820302795D+00-7.960688996889D-09
   -5.893102672516D-11 1.000000000000D+00 2.175000000000D+03 0.000000000000D+00
    2.000000000000D+00 0.000000000000D+00 4.656612873077D-10 3.800000000000D+01
    1.223400000000D+05 0.000000000000D+00
31 21 09 13 12 00  0.0-1.395326107740D-04-2.046363078989D-12 0.000000000000D+00
    4.400000000000D+01 3.709375000000D+01 4.491615523960D-09 6.709731906923D-01
    2.097338438034D-06 1.017089793459D-02 9.182840585709D-06 5.153607629776D+03
    1.296000000000D+05 6.891787052155D-08-2.283949429238D+00 1.862645149231D-07
    9.556627001703D-01 1.976875000000D+02 2.919762195815D-01-7.992476014351D-09
   -3.582291963067D-10 1.000000000000D+00 2.175000000000D+03 0.000000000000D+00
    2.000000000000D+00 0.000000000000D+00-1.303851604462D-08 4.400000000000D+01
    1.223400000000D+05 0.000000000000D+00
19 21 09 13 12 00  0.0 5.238363519311D-05 5.002220859751D-12 0.000000000000D+00
    6.100000000000D+01-3.781250000000D+00 4.291964561531D-09 1.121845048892D-01
   -2.067536115646D-07 9.134963853285D-03 3.820285201073D-06 5.153652359009D+03
    1.296000000000D+05-5.029141902924D-08-1.079858422266D-01-5.587935447693D-08
    9.801523481938D-01 3.169062500000D+02 1.939358082346D+00-8.289631203695D-09
    2.392956839625D-11 1.000000000000D+00 2.175000000000D+03 0.000000000000D+00
    2.000000000000D+00 0.000000000000D+00-1.536682248116D-08 6.100000000000D+01
    1.223400000000D+05 0.000000000000D+00
17 21 09 13 11 59 44.0 5.040401592851D-04 5.570655048359D-12 0.000000000000D+00
    0.000000000000D+00 1.034375000000D+01 4.178388302023D-09-2.263659867297D+00
    7.357448339462D-07 1.352980849333D-02 3.106892108917D-06 5.153663270950D+03
    1.295840000000D+05 1.639127731323D-07-1.529962093405D-01 1.434236764908D-07
    9.815198284234D-01 3.258437500000D+02-1.556997814294D+00-7.881399533005D-09
    1.150047904130D-10 1.000000000000D+00 2.175000000000D+03 0.000000000000D+00
    2.000000000000D+00 0.000000000000D+00-1.117587089539D-08 0.000000000000D+00
    1.223100000000D+05 0.000000000000D+00
